IRIDIUM 57 [-]          
1 25273U 98019B   24069.44396359  .00000556  00000+0  18814-3 0  9990
2 25273  86.4010 339.9057 0002148  86.4153 273.7289 14.35112485358118
IRIDIUM 63 [-]          
1 25286U 98021B   24069.50494888  .00000558  00000+0  18694-3 0  9998
2 25286  86.3931 276.7830 0002027  83.3512 276.7915 14.35629595357158
IRIDIUM 69 [-]          
1 25319U 98026A   24069.51754353  .00000588  00000+0  18126-3 0  9990
2 25319  86.3945 291.4738 0004261 101.5870 258.5807 14.39823446356177
IRIDIUM 71 [-]          
1 25320U 98026B   24069.53970391  .00000599  00000+0  18334-3 0  9999
2 25320  86.3932 286.2442 0002946 133.6953 226.4491 14.40149277356690
IRIDIUM 73 [-]          
1 25344U 98032C   24069.47579709  .00000988  00000+0  24843-3 0  9997
2 25344  86.4386 243.8204 0002695  97.0287 263.1225 14.50334129363176
IRIDIUM 82 [-]          
1 25467U 98051A   24069.45323931  .00012822  00000+0  68936-3 0  9997
2 25467  86.3898 332.9620 0133960 226.0550 132.9574 15.07247798353456
IRIDIUM 2 [-]           
1 25527U 98066A   24069.54014718  .00081718  00000+0  10550-2 0  9998
2 25527  85.5158   7.3409 0005603  64.3418 295.8423 15.58671531392276
